NORAD_CAT_ID,OBJECT_NAME,OBJECT_TYPE,EPOCH,MEAN_MOTION,ECCENTRICITY,INCLINATION,RA_OF_ASC_NODE,ARG_OF_PERICENTER,MEAN_ANOMALY,BSTAR,MEAN_MOTION_DOT,MEAN_MOTION_DDOT,TLE_LINE0,TLE_LINE1,TLE_LINE2,SEMIMAJOR_AXIS,PERIOD,APOGEE,PERIGEE,DECAYED
53572.0,STARLINK-4555,PAYLOAD,2022-10-26 06:00:00,15.56875335,0.0001187,53.2166,181.2529,74.6592,194.3194,-0.01731,-0.01143023,0.0,0 STARLINK-4555,1 53572U 22101AX  22299.25001157 -.01143023  00000-0 -17310-1 0  9992,2 53572  53.2166 181.2529 0001187  74.6592 194.3194 15.56875335 10634,6774.844,92.493,397.513,395.905,0.0
53572.0,STARLINK-4555,PAYLOAD,2022-10-26 14:00:01,15.56051747,0.0001047,53.2174,179.6415,76.8662,260.9235,-0.0176069999999999,-0.01128755,0.0,0 STARLINK-4555,1 53572U 22101AX  22299.58334491 -.01128755  00000-0 -17607-1 0  9992,2 53572  53.2174 179.6415 0001047  76.8662 260.9235 15.56051747  1308,6777.234,92.542,399.809,398.389,0.0
53572.0,STARLINK-4555,PAYLOAD,2022-10-26 22:00:00,15.55241109,0.0001152,53.2176,178.0364,65.277,340.3378,-0.018218,-0.01132809,0.0,0 STARLINK-4555,1 53572U 22101AX  22299.91667824 -.01132809  00000-0 -18218-1 0  9992,2 53572  53.2176 178.0364 0001152  65.2770 340.3378 15.55241109  1308,6779.589,92.59,402.235,400.673,0.0
53572.0,STARLINK-4555,PAYLOAD,2022-10-27 06:00:00,15.544265,0.0001171999999999,53.2172,176.4312,76.3521,36.113,-0.018741,-0.01130935,0.0,0 STARLINK-4555,1 53572U 22101AX  22300.25001157 -.01130935  00000-0 -18741-1 0  9992,2 53572  53.2172 176.4312 0001172  76.3521  36.1130 15.54426500 10796,6781.956999999999,92.639,404.617,403.027,0.0
53572.0,STARLINK-4555,PAYLOAD,2022-10-27 14:00:01,15.53613001,0.0001313,53.2173,174.8266,70.3608,108.0418,-0.01933,-0.01132035,0.0,0 STARLINK-4555,1 53572U 22101AX  22300.58335648 -.01132035  00000-0 -19330-1 0  9991,2 53572  53.2173 174.8266 0001313  70.3608 108.0418 15.53613001  1302,6784.324000000001,92.687,407.08,405.299,0.0
53572.0,STARLINK-4555,PAYLOAD,2022-10-27 22:00:00,15.52797353,0.0001315,53.2173,173.2275,70.1242,173.1071,-0.0198449999999999,-0.01128447,0.0,0 STARLINK-4555,1 53572U 22101AX  22300.91667824 -.01128447  00000-0 -19845-1 0  9995,2 53572  53.2173 173.2275 0001315  70.1242 173.1071 15.52797353  1309,6786.7,92.736,409.457,407.673,0.0
53572.0,STARLINK-4555,PAYLOAD,2022-10-28 14:00:01,15.5116319,0.0001258,53.2165,170.0302,68.1314,302.0206,-0.020758,-0.01114047,0.0,0 STARLINK-4555,1 53572U 22101AX  22301.58335648 -.01114047  00000-0 -20758-1 0  9991,2 53572  53.2165 170.0302 0001258  68.1314 302.0206 15.51163190  1307,6791.465999999999,92.834,414.185,412.476,0.0
53572.0,STARLINK-4555,PAYLOAD,2022-10-28 22:00:01,15.50249186,0.0001329,53.2168,168.4365,83.053,349.0666,-0.0087304,-0.00473233,0.0,0 STARLINK-4555,1 53572U 22101AX  22301.91668981 -.00473233  00000-0 -87304-2 0  9992,2 53572  53.2168 168.4365 0001329  83.0530 349.0666 15.50249186 11058,6794.135,92.888,416.903,415.097,0.0
53572.0,STARLINK-4555,PAYLOAD,2022-10-29 08:00:01,15.49887734,0.0001151,53.2175,166.4433,91.7329,146.6921,-8.3306e-05,-5.177e-05,0.0,0 STARLINK-4555,1 53572U 22101AX  22302.33334491 -.00005177  00000-0 -83306-4 0  9993,2 53572  53.2175 166.4433 0001151  91.7329 146.6921 15.49887734 11112,6795.191,92.91,417.838,416.274,0.0
53572.0,STARLINK-4555,PAYLOAD,2022-10-29 12:00:00,15.49885001,0.0001186,53.2174,165.646,94.0715,354.8122,3.6733e-06,-2.43e-06,0.0,0 STARLINK-4555,1 53572U 22101AX  22302.50001157 -.00000243  00000-0  36733-5 0  9993,2 53572  53.2174 165.6460 0001186  94.0715 354.8122 15.49885001  1306,6795.199000000001,92.91,417.87,416.258,0.0
53572.0,STARLINK-4555,PAYLOAD,2022-10-29 22:00:01,15.49808681,0.0001351999999999,53.2161,163.6584,76.2913,178.9097,6.6875e-05,3.336e-05,0.0,0 STARLINK-4555,1 53572U 22101AX  22302.91668981  .00003336  00000-0  66875-4 0  9996,2 53572  53.2161 163.6584 0001352  76.2913 178.9097 15.49808681  1309,6795.422,92.915,418.206,416.369,0.0
53572.0,STARLINK-4555,PAYLOAD,2022-10-30 14:00:01,15.49519548,0.000102,53.2168,160.4692,60.2246,316.519,-0.02009,-0.0102515,0.0,0 STARLINK-4555,1 53572U 22101AX  22303.58334491 -.01025150  00000-0 -20090-1 0  9993,2 53572  53.2168 160.4692 0001020  60.2246 316.5190 15.49519548  1300,6796.268,92.932,418.826,417.439,0.0
53572.0,STARLINK-4555,PAYLOAD,2022-10-30 22:00:01,15.48818114,0.0001193,53.217,158.8798,78.3435,358.4764,-0.024072,-0.01198927,0.0,0 STARLINK-4555,1 53572U 22101AX  22303.91668981 -.01198927  00000-0 -24072-1 0  9991,2 53572  53.2170 158.8798 0001193  78.3435 358.4764 15.48818114  1304,6798.319,92.974,420.995,419.37300000000016,0.0
53572.0,STARLINK-4555,PAYLOAD,2022-10-31 14:00:01,15.47160117,0.0001405,53.2166,155.7011,65.8597,128.1064,-0.024498,-0.01155213,0.0,0 STARLINK-4555,1 53572U 22101AX  22304.58334491 -.01155213  00000-0 -24498-1 0  9994,2 53572  53.2166 155.7011 0001405  65.8597 128.1064 15.47160117  1306,6803.175,93.074,425.996,424.085,0.0
53572.0,STARLINK-4555,PAYLOAD,2022-10-31 22:00:01,15.46341413,0.0001220999999999,53.2169,154.1173,90.5709,160.5923,-0.025062,-0.01149112,0.0,0 STARLINK-4555,1 53572U 22101AX  22304.91668981 -.01149112  00000-0 -25062-1 0  9994,2 53572  53.2169 154.1173 0001221  90.5709 160.5923 15.46341413 11514,6805.576,93.123,428.272,426.61,0.0
53572.0,STARLINK-4555,PAYLOAD,2022-11-01 14:00:01,15.44712968,0.0001188,53.2169,150.9502,64.5417,297.8867,-0.026448,-0.01146619,0.0,0 STARLINK-4555,1 53572U 22101AX  22305.58334491 -.01146619  00000-0 -26448-1 0  9992,2 53572  53.2169 150.9502 0001188  64.5417 297.8867 15.44712968  1305,6810.359,93.221,433.033,431.415,0.0
53572.0,STARLINK-4555,PAYLOAD,2022-11-01 22:00:00,15.438976,0.0001147999999999,53.2172,149.3722,77.5053,339.1205,-0.027162,-0.01145291,0.0,0 STARLINK-4555,1 53572U 22101AX  22305.91667824 -.01145291  00000-0 -27162-1 0  9997,2 53572  53.2172 149.3722 0001148  77.5053 339.1205 15.43897600  1303,6812.755999999999,93.27,435.403,433.839,0.0
53572.0,STARLINK-4555,PAYLOAD,2022-11-02 14:00:01,15.42268237,0.0001326,53.2177,146.2164,87.9503,74.1386,-0.028589,-0.0114107999999999,0.0,0 STARLINK-4555,1 53572U 22101AX  22306.58334491 -.01141080  00000-0 -28589-1 0  9998,2 53572  53.2177 146.2164 0001326  87.9503  74.1386 15.42268237  1300,6817.554,93.369,440.323,438.515,0.0
53572.0,STARLINK-4555,PAYLOAD,2022-11-02 22:00:00,15.41453745,0.0001493,53.2176,144.6444,59.863,153.4889,-0.029351,-0.01139982,0.0,0 STARLINK-4555,1 53572U 22101AX  22306.91667824 -.01139982  00000-0 -29351-1 0  9990,2 53572  53.2176 144.6444 0001493  59.8630 153.4889 15.41453745 11822,6819.955,93.418,442.838,440.802,0.0
53572.0,STARLINK-4555,PAYLOAD,2022-11-03 14:00:01,15.39833478,0.0001279,53.217,141.5011,61.403,251.5398,-0.031247,-0.01148873,0.0,0 STARLINK-4555,1 53572U 22101AX  22307.58334491 -.01148873  00000-0 -31247-1 0  9991,2 53572  53.2170 141.5011 0001279  61.4030 251.5398 15.39833478  1306,6824.738,93.517,447.476,445.73,0.0
53572.0,STARLINK-4555,PAYLOAD,2022-11-04 00:00:00,15.38806215,0.0001515,53.2174,139.5426,47.2681,55.9391,-0.031902,-0.01135123,0.0,0 STARLINK-4555,1 53572U 22101AX  22308.00001157 -.01135123  00000-0 -31902-1 0  9991,2 53572  53.2174 139.5426 0001515  47.2681  55.9391 15.38806215  1301,6827.775,93.579,450.675,448.606,0.0
53572.0,STARLINK-4555,PAYLOAD,2022-11-04 14:00:01,15.37384648,0.0001443,53.2177,136.8021,52.3332,42.6714,-0.033548,-0.01138942,0.0,0 STARLINK-4555,1 53572U 22101AX  22308.58334491 -.01138942  00000-0 -33548-1 0  9994,2 53572  53.2177 136.8021 0001443  52.3332  42.6714 15.37384648 12084,6831.984,93.666,454.834,452.86300000000006,0.0
53572.0,STARLINK-4555,PAYLOAD,2022-11-05 00:00:00,15.36364968,0.0001298,53.2173,134.8514,79.6705,161.9268,-0.034518,-0.01134057,0.0,0 STARLINK-4555,1 53572U 22101AX  22309.00001157 -.01134057  00000-0 -34518-1 0  9993,2 53572  53.2173 134.8514 0001298  79.6705 161.9268 15.36364968  1303,6835.005999999999,93.728,457.758,455.984,0.0
53572.0,STARLINK-4555,PAYLOAD,2022-11-05 14:00:01,15.34956588,0.0001768,53.2133,132.1241,95.6189,132.7327,-0.036864,-0.01155405,0.0,0 STARLINK-4555,1 53572U 22101AX  22309.58335648 -.01155405  00000-0 -36864-1 0  9997,2 53572  53.2133 132.1241 0001768  95.6189 132.7327 15.34956588  1308,6839.186,93.814,462.261,459.842,0.0
53572.0,STARLINK-4555,PAYLOAD,2022-11-05 22:00:01,15.34105516,0.0001317,53.2122,130.5703,85.4458,185.3799,-0.035575,-0.01090714,0.0,0 STARLINK-4555,1 53572U 22101AX  22309.91668981 -.01090714  00000-0 -35575-1 0  9992,2 53572  53.2122 130.5703 0001317  85.4458 185.3799 15.34105516  1301,6841.715999999999,93.866,464.482,462.68,0.0
53572.0,STARLINK-4555,PAYLOAD,2022-11-06 14:00:01,15.3253256,0.0001107999999999,53.2123,127.4611,93.3041,259.4358,-0.04096,-0.01185176,0.0,0 STARLINK-4555,1 53572U 22101AX  22310.58334491 -.01185176  00000-0 -40960-1 0  9994,2 53572  53.2123 127.4611 0001108  93.3041 259.4358 15.32532560  1304,6846.396,93.962,469.02,467.503,0.0
53572.0,STARLINK-4555,PAYLOAD,2022-11-07 06:00:00,15.30854733,0.000113,53.2124,124.361,81.4795,349.362,-0.040278,-0.01112258,0.0,0 STARLINK-4555,1 53572U 22101AX  22311.25001157 -.01112258  00000-0 -40278-1 0  9992,2 53572  53.2124 124.3610 0001130  81.4795 349.3620 15.30854733 12499,6851.398,94.065,474.037,472.489,0.0
53572.0,STARLINK-4555,PAYLOAD,2022-11-07 22:00:00,15.29233984,0.0001336,53.2169,121.2681,81.7125,63.2596,-0.042596,-0.01117896,0.0,0 STARLINK-4555,1 53572U 22101AX  22311.91667824 -.01117896  00000-0 -42596-1 0  9992,2 53572  53.2169 121.2681 0001336  81.7125  63.2596 15.29233984  1309,6856.238,94.165,479.019,477.187,0.0
53572.0,STARLINK-4555,PAYLOAD,2022-11-08 14:00:01,15.27641874,0.0001395999999999,53.2131,118.1845,86.6914,128.5627,-0.047321,-0.01192767,0.0,0 STARLINK-4555,1 53572U 22101AX  22312.58334491 -.01192767  00000-0 -47321-1 0  9998,2 53572  53.2131 118.1845 0001396  86.6914 128.5627 15.27641874  1300,6861.001,94.263,483.824,481.908,0.0
